[
    {
        "Altitude(m)": 617710.6772578487,
        "Argument of Periapsis(deg)": 0.0,
        "Eccentricity": 0.0,
        "Inclination(deg)": 60.0,
        "Latitude(deg)": -41.10276192433737,
        "Longitude(deg)": -10.033251819859133,
        "Mean Anomaly(deg)": -49.09089999999997,
        "RAAN(deg)": 120.0,
        "Satellite Name": "Test1 547",
        "Satellite Number": 547,
        "Semi-Major Axis(m)": 6980739.136638005,
        "Time(s)": 0
    },
    {
        "Altitude(m)": 617517.9752241371,
        "Argument of Periapsis(deg)": 0.00010418945913296404,
        "Eccentricity": 0.0,
        "Inclination(deg)": 60.0,
        "Latitude(deg)": -40.636967702360124,
        "Longitude(deg)": -9.536459390589801,
        "Mean Anomaly(deg)": -48.470793854538115,
        "RAAN(deg)": 119.99957995086024,
        "Satellite Name": "Test1 547",
        "Satellite Number": 547,
        "Semi-Major Axis(m)": 6980739.136638005,
        "Time(s)": 10
    }
]